[{"OBJECT_NAME":"CENTISPACE-1 S16","OBJECT_ID":"2025-007L","EPOCH":"2026-03-09T22:19:35.742720","MEAN_MOTION":13.83788854,"ECCENTRICITY":0.00097753,"INCLINATION":54.9896,"RA_OF_ASC_NODE":278.4158,"ARG_OF_PERICENTER":276.6443,"MEAN_ANOMALY":83.3403,"EPHEMERIS_TYPE":0,"CLASSIFICATION_TYPE":"U","NORAD_CAT_ID":62585,"ELEMENT_SET_NO":999,"REV_AT_EPOCH":6100,"BSTAR":0.00018306265,"MEAN_MOTION_DOT":6.2e-7,"MEAN_MOTION_DDOT":0},{"OBJECT_NAME":"OPS 1593 (TRANSIT 11)","OBJECT_ID":"1966-005A","EPOCH":"2026-03-09T17:40:03.044640","MEAN_MOTION":13.68106477,"ECCENTRICITY":0.02159621,"INCLINATION":90.1543,"RA_OF_ASC_NODE":350.2824,"ARG_OF_PERICENTER":316.2309,"MEAN_ANOMALY":42.1905,"EPHEMERIS_TYPE":0,"CLASSIFICATION_TYPE":"U","NORAD_CAT_ID":1952,"ELEMENT_SET_NO":999,"REV_AT_EPOCH":99255,"BSTAR":0.00025452201,"MEAN_MOTION_DOT":2.62e-6,"MEAN_MOTION_DDOT":0}]
